NORAD_CAT_ID,OBJECT_NAME,OBJECT_TYPE,EPOCH,MEAN_MOTION,ECCENTRICITY,INCLINATION,RA_OF_ASC_NODE,ARG_OF_PERICENTER,MEAN_ANOMALY,BSTAR,MEAN_MOTION_DOT,MEAN_MOTION_DDOT,TLE_LINE0,TLE_LINE1,TLE_LINE2,SEMIMAJOR_AXIS,PERIOD,APOGEE,PERIGEE,DECAYED
55748.0,STARLINK-5580,PAYLOAD,2024-03-19 21:55:38,14.98347405,0.0002903,69.9989,259.3061,264.7558,95.327,0.00013168,1.479e-05,0.0,0 STARLINK-5580,1 55748U 23028H   24079.91364284  .00001479  00000-0  13168-3 0  9996,2 55748  69.9989 259.3061 0002903 264.7558  95.3270 14.98347405 58226,6950.139,96.106,574.022,569.986,0.0
55748.0,STARLINK-5580,PAYLOAD,2024-03-20 10:44:43,14.98345024,0.0002685,69.9995,257.9622,263.377,96.7084,-8.0148e-05,-1.049e-05,0.0,0 STARLINK-5580,1 55748U 23028H   24080.44772586 -.00001049  00000-0 -80148-4 0  9992,2 55748  69.9995 257.9622 0002685 263.3770  96.7084 14.98345024 58300,6950.146,96.106,573.878,570.145,0.0
55748.0,STARLINK-5580,PAYLOAD,2024-03-20 13:56:59,14.98341588,0.0002688,69.9994,257.6235,262.6794,97.406,-0.00011151,-1.424e-05,0.0,0 STARLINK-5580,1 55748U 23028H   24080.58124764 -.00001424  00000-0 -11151-3 0  9990,2 55748  69.9994 257.6235 0002688 262.6794  97.4060 14.98341588 58322,6950.157,96.106,573.89,570.154,0.0
55748.0,STARLINK-5580,PAYLOAD,2024-03-20 20:21:32,14.98338834,0.0002737,69.9994,256.9504,263.001,97.0838,-0.0001408,-1.773e-05,0.0,0 STARLINK-5580,1 55748U 23028H   24080.84828785 -.00001773  00000-0 -14080-3 0  9994,2 55748  69.9994 256.9504 0002737 263.0010  97.0838 14.98338834 58367,6950.166,96.106,573.933,570.128,0.0
55748.0,STARLINK-5580,PAYLOAD,2024-03-20 21:57:40,14.98338427,0.0002741,69.9994,256.782,263.5464,96.5383,-0.00014339,-1.804e-05,0.0,0 STARLINK-5580,1 55748U 23028H   24080.91504771 -.00001804  00000-0 -14339-3 0  9990,2 55748  69.9994 256.7820 0002741 263.5464  96.5383 14.98338427 58377,6950.167,96.106,573.937,570.127,0.0
55748.0,STARLINK-5580,PAYLOAD,2024-03-21 12:22:51,14.98369529,0.0002772,69.9992,255.2659,261.4003,98.6842,-0.00056426,-6.826e-05,0.0,0 STARLINK-5580,1 55748U 23028H   24081.51587816 -.00006826  00000-0 -56426-3 0  9990,2 55748  69.9992 255.2659 0002772 261.4003  98.6842 14.98369529 58469,6950.071,96.104,573.862,570.009,0.0
55748.0,STARLINK-5580,PAYLOAD,2024-03-21 13:59:00,14.98339581,0.0002744,69.9992,255.0974,266.8293,93.2552,-6.2555e-05,-8.39e-06,0.0,0 STARLINK-5580,1 55748U 23028H   24081.58264017 -.00000839  00000-0 -62555-4 0  9991,2 55748  69.9992 255.0974 0002744 266.8293  93.2552 14.98339581 58471,6950.163,96.106,573.935,570.121,0.0
55748.0,STARLINK-5580,PAYLOAD,2024-03-21 20:23:32,14.98339093,0.0002838,69.9991,254.4243,266.2628,93.8206,-4.3771e-05,-6.15e-06,0.0,0 STARLINK-5580,1 55748U 23028H   24081.84967833 -.00000615  00000-0 -43771-4 0  9997,2 55748  69.9991 254.4243 0002838 266.2628  93.8206 14.98339093 58517,6950.165,96.106,574.002,570.057,0.0
55748.0,STARLINK-5580,PAYLOAD,2024-03-21 21:59:40,14.98340964,0.0002942,69.9988,254.256,268.1847,91.8975,-4.2901e-05,-6.05e-06,0.0,0 STARLINK-5580,1 55748U 23028H   24081.91643666 -.00000605  00000-0 -42901-4 0  9993,2 55748  69.9988 254.2560 0002942 268.1847  91.8975 14.98340964 58524,6950.159,96.106,574.069,569.979,0.0
55748.0,STARLINK-5580,PAYLOAD,2024-03-22 14:01:00,14.98331759,0.0002869,69.9991,252.5727,268.1726,91.9105,6.0741e-05,6.32e-06,0.0,0 STARLINK-5580,1 55748U 23028H   24082.58403739  .00000632  00000-0  60741-4 0  9992,2 55748  69.9991 252.5727 0002869 268.1726  91.9105 14.98331759 58627,6950.187,96.107,574.046,570.058,0.0
55748.0,STARLINK-5580,PAYLOAD,2024-03-22 20:25:32,14.98333783,0.0002839,69.9992,251.8992,268.7339,91.3494,5.6333e-05,5.79e-06,0.0,0 STARLINK-5580,1 55748U 23028H   24082.85107576  .00000579  00000-0  56333-4 0  9994,2 55748  69.9992 251.8992 0002839 268.7339  91.3494 14.98333783 58665,6950.181,96.107,574.019,570.073,0.0
55748.0,STARLINK-5580,PAYLOAD,2024-03-23 12:26:54,14.98325667,0.0002651,70.0008,250.2173,249.0699,111.0176,-3.2984e-05,-4.86e-06,0.0,0 STARLINK-5580,1 55748U 23028H   24083.51868334 -.00000486  00000-0 -32984-4 0  9999,2 55748  70.0008 250.2173 0002651 249.0699 111.0176 14.98325667 58763,6950.206,96.107,573.914,570.229,0.0
55748.0,STARLINK-5580,PAYLOAD,2024-03-23 20:27:35,14.98319747,0.0002585,70.0003,249.3756,252.6547,107.4329,-8.0367e-05,-1.051e-05,0.0,0 STARLINK-5580,1 55748U 23028H   24083.85249012 -.00001051  00000-0 -80367-4 0  9999,2 55748  70.0003 249.3756 0002585 252.6547 107.4329 14.98319747 58819,6950.225,96.108,573.886,570.293,0.0
55748.0,STARLINK-5580,PAYLOAD,2024-03-24 12:28:54,14.98334557,0.0003332,69.999,247.6909,270.7615,89.3162,7.1248e-05,7.57e-06,0.0,0 STARLINK-5580,1 55748U 23028H   24084.52007711  .00000757  00000-0  71248-4 0  9990,2 55748  69.9990 247.6909 0003332 270.7615  89.3162 14.98334557 58910,6950.179,96.107,574.36,569.728,0.0
55748.0,STARLINK-5580,PAYLOAD,2024-03-24 14:05:02,14.9833627,0.0003259,69.9993,247.5225,270.2157,89.8628,0.00010312,1.138e-05,0.0,0 STARLINK-5580,1 55748U 23028H   24084.58683513  .00001138  00000-0  10312-3 0  9994,2 55748  69.9993 247.5225 0003259 270.2157  89.8628 14.98336270 58924,6950.174,96.107,574.304,569.773,0.0
55748.0,STARLINK-5580,PAYLOAD,2024-03-24 20:29:34,14.98346963,0.0003125,69.9995,246.8495,269.3567,90.7234,0.0002209,2.545e-05,0.0,0 STARLINK-5580,1 55748U 23028H   24084.85386600  .00002545  00000-0  22090-3 0  9990,2 55748  69.9995 246.8495 0003125 269.3567  90.7234 14.98346963 58961,6950.14,96.106,574.177,569.834,0.0
55748.0,STARLINK-5580,PAYLOAD,2024-03-25 04:30:14,14.9833635,0.0004226,69.9992,246.0051,260.6422,99.426,1.9166e-06,-7e-07,0.0,0 STARLINK-5580,1 55748U 23028H   24085.18766927 -.00000070  00000-0  19166-5 0  9995,2 55748  69.9992 246.0051 0004226 260.6422  99.4260 14.98336350 59016,6950.173,96.107,574.975,569.101,0.0
55748.0,STARLINK-5580,PAYLOAD,2024-03-25 12:30:56,14.98325131,0.0003351,69.9993,245.1668,269.1147,90.9628,8.9064e-05,9.7e-06,0.0,0 STARLINK-5580,1 55748U 23028H   24085.52148235  .00000970  00000-0  89064-4 0  9990,2 55748  69.9993 245.1668 0003351 269.1147  90.9628 14.98325131 59061,6950.208,96.107,574.402,569.744,0.0
55748.0,STARLINK-5580,PAYLOAD,2024-03-25 20:31:35,14.98338997,0.0003258,70.0004,244.3244,268.4946,91.584,0.00029073,3.378e-05,0.0,0 STARLINK-5580,1 55748U 23028H   24085.85527592  .00003378  00000-0  29073-3 0  9991,2 55748  70.0004 244.3244 0003258 268.4946  91.5840 14.98338997 59116,6950.165,96.106,574.294,569.766,0.0
55748.0,STARLINK-5580,PAYLOAD,2024-03-26 14:09:04,14.98315602,0.0003162,70.0008,242.4713,220.5186,139.5738,-0.00070713,-8.517e-05,0.0,0 STARLINK-5580,1 55748U 23028H   24086.58963578 -.00008517  00000-0 -70713-3 0  9999,2 55748  70.0008 242.4713 0003162 220.5186 139.5738 14.98315602 59228,6950.237,96.108,574.3,569.905,0.0
55748.0,STARLINK-5580,PAYLOAD,2024-03-26 20:33:39,14.98267284,0.0003127,70.0012,241.7995,267.9251,92.155,-0.0016361,-0.00019529,0.0,0 STARLINK-5580,1 55748U 23028H   24086.85670219 -.00019529  00000-0 -16361-2 0  9999,2 55748  70.0012 241.7995 0003127 267.9251  92.1550 14.98267284 59268,6950.387,96.111,574.425,570.078,0.0
55748.0,STARLINK-5580,PAYLOAD,2024-03-27 02:58:10,14.98297443,0.0003405,70.0021,241.1248,265.3029,94.7741,-0.00064984,-7.832e-05,0.0,0 STARLINK-5580,1 55748U 23028H   24087.12373587 -.00007832  00000-0 -64984-3 0  9997,2 55748  70.0021 241.1248 0003405 265.3029  94.7741 14.98297443 59302,6950.294,96.109,574.525,569.792,0.0
55748.0,STARLINK-5580,PAYLOAD,2024-03-27 12:34:59,14.98321717,0.0003081,70.0014,240.1164,261.9684,98.1125,0.00079616,9.417e-05,0.0,0 STARLINK-5580,1 55748U 23028H   24087.52429593  .00009417  00000-0  79616-3 0  9997,2 55748  70.0014 240.1164 0003081 261.9684  98.1125 14.98321717 59361,6950.219,96.108,574.225,569.942,0.0
55748.0,STARLINK-5580,PAYLOAD,2024-03-27 14:11:07,14.98318747,0.0003212,70.0014,239.9483,260.8394,99.2402,0.0020671,0.00024651,0.0,0 STARLINK-5580,1 55748U 23028H   24087.59106082  .00024651  00000-0  20671-2 0  9992,2 55748  70.0014 239.9483 0003212 260.8394  99.2402 14.98318747 59373,6950.228,96.108,574.325,569.86,0.0
55748.0,STARLINK-5580,PAYLOAD,2024-03-27 18:59:31,14.98358385,0.0003857,70.0001,239.4419,265.9096,94.1622,0.0043179,0.00051851,0.0,0 STARLINK-5580,1 55748U 23028H   24087.79133866  .00051851  00000-0  43179-2 0  9994,2 55748  70.0001 239.4419 0003857 265.9096  94.1622 14.98358385 59407,6950.105,96.105,574.651,569.289,0.0
55748.0,STARLINK-5580,PAYLOAD,2024-03-28 03:00:11,14.98358431,0.000294,70.0016,238.5988,264.9759,95.1064,0.0027221,0.00032562,0.0,0 STARLINK-5580,1 55748U 23028H   24088.12513695  .00032562  00000-0  27221-2 0  9992,2 55748  70.0016 238.5988 0002940 264.9759  95.1064 14.98358431 59459,6950.105,96.105,574.013,569.927,0.0
55748.0,STARLINK-5580,PAYLOAD,2024-03-28 12:36:59,14.98363939,0.0003154,70.0018,237.5917,257.7336,102.347,0.0012901,0.00015348,0.0,0 STARLINK-5580,1 55748U 23028H   24088.52568854  .00015348  00000-0  12901-2 0  9995,2 55748  70.0018 237.5917 0003154 257.7336 102.3470 14.98363939 59519,6950.088,96.105,574.145,569.761,0.0
55748.0,STARLINK-5580,PAYLOAD,2024-03-29 12:38:59,14.98337431,0.0002997,70.0021,235.0667,262.6152,97.4666,-0.00025948,-3.188e-05,0.0,0 STARLINK-5580,1 55748U 23028H   24089.52707821 -.00003188  00000-0 -25948-3 0  9992,2 55748  70.0021 235.0667 0002997 262.6152  97.4666 14.98337431 59668,6950.17,96.107,574.118,569.952,0.0
55748.0,STARLINK-5580,PAYLOAD,2024-03-29 15:51:15,14.98337957,0.0003091,70.002,234.73,265.4697,94.6109,9.9127e-05,1.09e-05,0.0,0 STARLINK-5580,1 55748U 23028H   24089.66059901  .00001090  00000-0  99127-4 0  9995,2 55748  70.0020 234.7300 0003091 265.4697  94.6109 14.98337957 59684,6950.168,96.106,574.182,569.885,0.0
55748.0,STARLINK-5580,PAYLOAD,2024-03-30 12:41:00,14.98333687,0.0003214,70.0017,232.5419,269.081,90.9981,0.00040284,4.717e-05,0.0,0 STARLINK-5580,1 55748U 23028H   24090.52848149  .00004717  00000-0  40284-3 0  9990,2 55748  70.0017 232.5419 0003214 269.0810  90.9981 14.98333687 59819,6950.181,96.107,574.28,569.813,0.0
